STARLINK-5080           
1 55437U 23014AY  24203.17994291  .00072886  00000+0  22639-2 0  9991
2 55437  69.9889 143.3165 0001875 202.7513 157.3581 15.32978407 81408
STARLINK-5074           
1 55438U 23014AZ  24203.21302069  .00002572  00000+0  22323-3 0  9999
2 55438  70.0011 128.2141 0002565 262.9370  97.1497 14.98340394 81777
STARLINK-5634           
1 55439U 23014BA  24203.16762071  .00000566  00000+0  55230-4 0  9992
2 55439  70.0007 168.5735 0003058 263.0668  97.0143 14.98325688 80774
APSTAR-6E SPS           
1 55447U 23005C   24202.49149047  .00000052  00000+0  74026-2 0  9990
2 55447  28.6398 254.6573 2289611   5.2128 356.8396  7.60523479 40830
STARLINK-5699           
1 55449U 23015A   24203.08222042  .00000041  00000+0  18123-4 0  9992
2 55449  42.9986 328.2369 0000713 334.3489  25.7317 15.02534081 81008
STARLINK-5686           
1 55450U 23015B   24202.62020270  .00002053  00000+0  16701-3 0  9996
2 55450  43.0039 330.7863 0001601 260.9759  99.0902 15.02530724 81878
STARLINK-5656           
1 55451U 23015C   24202.54706644  .00002875  00000+0  22787-3 0  9997
2 55451  43.0016 331.0983 0001797 273.2687  86.7950 15.02531618 80928
STARLINK-5683           
1 55452U 23015D   24202.74205264  .00001481  00000+0  12471-3 0  9993
2 55452  43.0022 329.9810 0001344 296.1600  63.9104 15.02538701 80959
STARLINK-5684           
1 55453U 23015E   24203.07110808  .00002148  00000+0  17399-3 0  9995
2 55453  43.0032 328.1451 0001772 259.9559 100.1083 15.02543550 81003
STARLINK-5636           
1 55454U 23015F   24203.06445095  .00002230  00000+0  18005-3 0  9991
2 55454  43.0037 328.0914 0001386 267.4525  92.6158 15.02541004 81000
STARLINK-5680           
1 55455U 23015G   24202.41299671  .00004165  00000+0  32322-3 0  9994
2 55455  43.0028 331.8126 0001733 282.3715  77.6934 15.02538715 80909
STARLINK-5058           
1 55456U 23015H   24202.66670056  .00005086  00000+0  39133-3 0  9992
2 55456  43.0017 330.2751 0001499 271.1441  88.9230 15.02534102 80940
STARLINK-5682           
1 55457U 23015J   24202.73538992  .00000008  00000+0  15650-4 0  9991
2 55457  43.0029 329.9293 0001190 268.5409  91.5297 15.02543097 80959
STARLINK-5020           
1 55458U 23015K   24202.65559529  .00002822  00000+0  22386-3 0  9991
2 55458  43.0026 330.1893 0001326 273.8220  86.2471 15.02544647 80944
STARLINK-5669           
1 55459U 23015L   24202.66004300  .00001362  00000+0  11593-3 0  9991
2 55459  43.0066 330.2243 0001683 274.7356  85.3294 15.02531050 80942
STARLINK-5678           
1 55460U 23015M   24202.65671199 -.00000390  00000+0 -13809-4 0  9993
2 55460  43.0023 330.1987 0001815 261.1198  98.9439 15.02527372 80945
STARLINK-5646           
1 55461U 23015N   24203.06223694  .00002085  00000+0  16934-3 0  9995
2 55461  43.0035 328.0816 0001855 260.8072  99.2561 15.02537984 81005
STARLINK-5673           
1 55462U 23015P   24202.64560698 -.00000144  00000+0  44301-5 0  9993
2 55462  43.0038 330.1152 0000931 247.6061 112.4683 15.02541857 80940
STARLINK-5677           
1 55463U 23015Q   24202.65115551  .00000729  00000+0  69008-4 0  9997
2 55463  43.0024 330.1556 0001412 268.3755  91.6926 15.02541391 80940
STARLINK-5676           
1 55464U 23015R   24202.77190898  .00000432  00000+0  47069-4 0  9992
2 55464  42.9994 329.3401 0000889 224.2431 135.8340 15.02529614 80960
STARLINK-5674           
1 55465U 23015S   24202.77523971  .00001746  00000+0  14435-3 0  9994
2 55465  43.0030 329.3680 0001559 276.3445  83.7220 15.02530249 80965
STARLINK-5628           
1 55466U 23015T   24202.75859170  .00002148  00000+0  17408-3 0  9996
2 55466  43.0023 329.2428 0001232 273.1391  86.9310 15.02527873 80964
STARLINK-5679           
1 55467U 23015U   24202.64894765  .00000902  00000+0  81897-4 0  9994
2 55467  43.0040 330.1393 0001431 271.1737  88.8941 15.02522247 80948
STARLINK-5672           
1 55468U 23015V   24203.03558660  .00002103  00000+0  17070-3 0  9996
2 55468  43.0057 327.8809 0001969 274.3649  85.6969 15.02545200 81002
STARLINK-5681           
1 55469U 23015W   24203.03892539  .00000946  00000+0  85068-4 0  9999
2 55469  43.0049 327.9071 0001188 261.6961  98.3746 15.02538119 81000
STARLINK-5708           
1 55470U 23015X   24203.03115412  .00001430  00000+0  12086-3 0  9997
2 55470  43.0014 327.8450 0000576 261.3134  98.7643 15.02538792 81000
STARLINK-5711           
1 55471U 23015Y   24202.76303371  .00004336  00000+0  33607-3 0  9990
2 55471  43.0049 329.2766 0001581 271.1896  88.8766 15.02511618 80964
STARLINK-5705           
1 55472U 23015Z   24202.76229340 -.00000667  00000+0 -34281-4 0  9999
2 55472  43.0028 317.1259 0001642 266.8519  93.2136 15.02532421 81109
STARLINK-5687           
1 55473U 23015AA  24202.59587877  .00051280  00000+0  27908-2 0  9994
2 55473  43.0051 321.3184 0012733 331.9035  28.1123 15.13634355 81047
STARLINK-5689           
1 55474U 23015AB  24202.86587813  .00002994  00000+0  23668-3 0  9993
2 55474  43.0038 342.1801 0001533 279.7405  80.3264 15.02524463 80823
STARLINK-5650           
1 55475U 23015AC  24202.68878892  .00007548  00000+0  57367-3 0  9997
2 55475  43.0054 329.5756 0001504 256.6892 103.3782 15.02506802 80954
STARLINK-5685           
1 55477U 23015AE  24202.75673182  .00004145  00000+0  32175-3 0  9992
2 55477  43.0018 317.0798 0000882 272.5708  87.5033 15.02535835 81103
STARLINK-5691           
1 55478U 23015AF  24203.02153861  .00001623  00000+0  13520-3 0  9992
2 55478  43.0034 315.6247 0001444 269.4623  90.6054 15.02541213 81140
STARLINK-5688           
1 55479U 23015AG  24203.03152972  .00002861  00000+0  22671-3 0  9998
2 55479  43.0020 315.6982 0001515 256.0529 104.0145 15.02542179 81141
STARLINK-5690           
1 55480U 23015AH  24202.78524315  .00000905  00000+0  83778-4 0  9998
2 55480  43.0067 342.3469 0001949 259.4532 100.6091 15.01722719 80817
STARLINK-5694           
1 55481U 23015AJ  24202.72847316  .00000929  00000+0  83820-4 0  9996
2 55481  43.0019 342.8672 0000835 268.7240  91.3506 15.02544252 80809
STARLINK-5693           
1 55482U 23015AK  24203.10513794  .00002577  00000+0  20574-3 0  9997
2 55482  43.0031 340.5342 0001521 274.7993  85.2676 15.02539412 80686
STARLINK-5692           
1 55483U 23015AL  24202.58553698  .00001587  00000+0  13254-3 0  9993
2 55483  43.0030 343.5129 0001632 272.4172  87.6484 15.02527134 80781
STARLINK-5696           
1 55484U 23015AM  24202.57665012  .00000353  00000+0  41174-4 0  9990
2 55484  43.0045 343.4506 0001056 282.9372  77.1353 15.02540568 80789
STARLINK-5695           
1 55485U 23015AN  24202.85811464  .00004771  00000+0  36825-3 0  9990
2 55485  43.0036 342.1162 0001470 260.6051  99.4625 15.02509596 80641
STARLINK-5704           
1 55486U 23015AP  24203.11068398  .00000980  00000+0  87620-4 0  9999
2 55486  43.0055 340.5265 0001966 254.4805 105.5821 15.02539746 80868
STARLINK-5701           
1 55487U 23015AQ  24202.65978151  .00002137  00000+0  17327-3 0  9997
2 55487  43.0026 343.2080 0001299 251.9961 108.0740 15.02532413 80790
STARLINK-5706           
1 55488U 23015AR  24202.70184336  .00001721  00000+0  14245-3 0  9992
2 55488  43.0033 342.6617 0001653 277.5902  82.4752 15.02529025 80806
STARLINK-5371           
1 55489U 23015AS  24202.58220480  .00002201  00000+0  17796-3 0  9998
2 55489  43.0024 343.4891 0001621 268.6445  91.4211 15.02529596 80788
STARLINK-5373           
1 55490U 23015AT  24203.11180483  .00001283  00000+0  11000-3 0  9999
2 55490  42.9972 340.5738 0000883 257.8210 102.2534 15.02535625 80685
STARLINK-5364           
1 55491U 23015AU  24203.03251943  .00001861  00000+0  15278-3 0  9994
2 55491  43.0010 314.8418 0000874 286.6970  73.3777 15.02541060 81153
STARLINK-5013           
1 55492U 23015AV  24202.77164455  .00001318  00000+0  11258-3 0  9997
2 55492  43.0004 342.3252 0000744 264.2322  95.8435 15.02541369 80812
STARLINK-5362           
1 55493U 23015AW  24202.57553859  .00002085  00000+0  16934-3 0  9994
2 55493  43.0052 343.4347 0001476 279.6342  80.4334 15.02546632 80780
STARLINK-5344           
1 55494U 23015AX  24203.09183680 -.00000111  00000+0  68273-5 0  9998
2 55494  43.0021 340.4248 0000687 311.8463  48.2321 15.02524475 80868
STARLINK-5100           
1 55495U 23015AY  24203.01820909  .00001487  00000+0  12509-3 0  9998
2 55495  43.0036 315.6002 0001347 265.7100  94.3588 15.02543209 80960
STARLINK-5363           
1 55497U 23015BA  24202.89128470  .00001465  00000+0  12350-3 0  9999
2 55497  43.0036 341.5028 0001388 267.8817  92.1867 15.02528268 80831
STARLINK-5365           
1 55498U 23015BB  24202.88240497  .00002493  00000+0  19959-3 0  9997
2 55498  43.0038 341.4346 0001202 263.1648  96.9057 15.02532072 80833
STARLINK-5366           
1 55499U 23015BC  24203.07518305  .00001112  00000+0  97400-4 0  9991
2 55499  43.0020 340.2987 0000768 256.4593 103.6164 15.02529639 80653
STARLINK-5141           
1 55500U 23015BD  24203.08738133  .00000354  00000+0  41307-4 0  9990
2 55500  43.0039 340.3896 0001492 261.9436  98.1237 15.02543016 80865
STARLINK-5367           
1 55501U 23015BE  24202.81148586  .00001095  00000+0  96096-4 0  9996
2 55501  43.0025 341.7631 0000832 271.1538  88.9209 15.02540810 80827
ELEKTRO-L 4             
1 55506U 23016A   24202.70909356 -.00000051  00000+0  00000+0 0  9997
2 55506   0.0358 126.9188 0001178  94.5388 138.5285  1.00271646  5338
AMAZONAS NEXUS          
1 55508U 23017A   24196.43900407 -.00000266  00000+0  00000+0 0  9998
2 55508   0.0338  42.8881 0004773  45.8923 301.0354  1.00270524    10
EOS-7                   
1 55562U 23019A   24202.95890507  .00075208  00000+0  11997-2 0  9991
2 55562  37.1771  19.8467 0006944 357.4801   2.5925 15.52071890 81546
STARLINK-5749           
1 55569U 23020A   24203.17445306  .00000321  00000+0  38798-4 0  9992
2 55569  43.0032   6.3095 0001062 278.5430  81.5292 15.02536932 79183
